LEMUR-2-ANDIS           
1 42838U 17042P   26068.55941107  .00023598  00000+0  79875-3 0  9998
2 42838  97.3659 249.7950 0009101   4.3248 355.8070 15.30557934473198
STARLINK-31890          
1 59785U 24093D   26068.41865880 -.00003501  00000+0 -11779-3 0  9992
2 59785  42.9980 206.9937 0001325 291.6017  68.4693 15.27575981102695
